CCSDS_OMM_VERS = 2.0
CREATION_DATE  = 
ORIGINATOR     = 

OBJECT_NAME    = STARLINK-36545
OBJECT_ID      = 2026-012N
CENTER_NAME    = EARTH
REF_FRAME      = TEME
TIME_SYSTEM    = UTC
MEAN_ELEMENT_THEORY = SGP/SGP4

EPOCH          = 2026-02-09T06:00:02.000160
MEAN_MOTION    = 15.61181507
ECCENTRICITY   = .00008424
INCLINATION    = 42.9995
RA_OF_ASC_NODE = 116.1674
ARG_OF_PERICENTER = 272.5036
MEAN_ANOMALY   = 281.6485

EPHEMERIS_TYPE = 0
CLASSIFICATION_TYPE = U
NORAD_CAT_ID   = 67505
ELEMENT_SET_NO = 999
REV_AT_EPOCH   = 449
BSTAR          = -.24670609E-1
MEAN_MOTION_DOT = -.1896807E-1
MEAN_MOTION_DDOT = 0

CCSDS_OMM_VERS = 2.0
CREATION_DATE  = 
ORIGINATOR     = 

OBJECT_NAME    = STARLINK-36553
OBJECT_ID      = 2026-012P
CENTER_NAME    = EARTH
REF_FRAME      = TEME
TIME_SYSTEM    = UTC
MEAN_ELEMENT_THEORY = SGP/SGP4

EPOCH          = 2026-02-09T06:00:02.000160
MEAN_MOTION    = 15.62549752
ECCENTRICITY   = .00010828
INCLINATION    = 42.9995
RA_OF_ASC_NODE = 116.0980
ARG_OF_PERICENTER = 264.2242
MEAN_ANOMALY   = 317.6830

EPHEMERIS_TYPE = 0
CLASSIFICATION_TYPE = U
NORAD_CAT_ID   = 67506
ELEMENT_SET_NO = 999
REV_AT_EPOCH   = 449
BSTAR          = -.23945431E-1
MEAN_MOTION_DOT = -.1937466E-1
MEAN_MOTION_DDOT = 0

CCSDS_OMM_VERS = 2.0
CREATION_DATE  = 
ORIGINATOR     = 

OBJECT_NAME    = STARLINK-36521
OBJECT_ID      = 2026-012Q
CENTER_NAME    = EARTH
REF_FRAME      = TEME
TIME_SYSTEM    = UTC
MEAN_ELEMENT_THEORY = SGP/SGP4

EPOCH          = 2026-02-09T06:00:02.000160
MEAN_MOTION    = 15.62497589
ECCENTRICITY   = .00010679
INCLINATION    = 42.9995
RA_OF_ASC_NODE = 116.0862
ARG_OF_PERICENTER = 263.8964
MEAN_ANOMALY   = 322.6673

EPHEMERIS_TYPE = 0
CLASSIFICATION_TYPE = U
NORAD_CAT_ID   = 67507
ELEMENT_SET_NO = 999
REV_AT_EPOCH   = 449
BSTAR          = -.23864224E-1
MEAN_MOTION_DOT = -.1928154E-1
MEAN_MOTION_DDOT = 0

CCSDS_OMM_VERS = 2.0
CREATION_DATE  = 
ORIGINATOR     = 

OBJECT_NAME    = STARLINK-36526
OBJECT_ID      = 2026-012R
CENTER_NAME    = EARTH
REF_FRAME      = TEME
TIME_SYSTEM    = UTC
MEAN_ELEMENT_THEORY = SGP/SGP4

EPOCH          = 2026-02-09T06:00:02.000160
MEAN_MOTION    = 15.62481189
ECCENTRICITY   = .00010896
INCLINATION    = 42.9996
RA_OF_ASC_NODE = 116.0727
ARG_OF_PERICENTER = 263.1248
MEAN_ANOMALY   = 328.8283

EPHEMERIS_TYPE = 0
CLASSIFICATION_TYPE = U
NORAD_CAT_ID   = 67508
ELEMENT_SET_NO = 999
REV_AT_EPOCH   = 449
BSTAR          = -.23915567E-1
MEAN_MOTION_DOT = -.1930723E-1
MEAN_MOTION_DDOT = 0

CCSDS_OMM_VERS = 2.0
CREATION_DATE  = 
ORIGINATOR     = 

OBJECT_NAME    = STARLINK-36541
OBJECT_ID      = 2026-012S
CENTER_NAME    = EARTH
REF_FRAME      = TEME
TIME_SYSTEM    = UTC
MEAN_ELEMENT_THEORY = SGP/SGP4

EPOCH          = 2026-02-09T06:00:02.000160
MEAN_MOTION    = 15.50569910
ECCENTRICITY   = .00003478
INCLINATION    = 43.0003
RA_OF_ASC_NODE = 117.0013
ARG_OF_PERICENTER = 230.6118
MEAN_ANOMALY   = 346.0746

EPHEMERIS_TYPE = 0
CLASSIFICATION_TYPE = U
NORAD_CAT_ID   = 67509
ELEMENT_SET_NO = 999
REV_AT_EPOCH   = 444
BSTAR          = -.10166488E-2
MEAN_MOTION_DOT = -.59508E-3
MEAN_MOTION_DDOT = 0

CCSDS_OMM_VERS = 2.0
CREATION_DATE  = 
ORIGINATOR     = 

OBJECT_NAME    = STARLINK-36549
OBJECT_ID      = 2026-012T
CENTER_NAME    = EARTH
REF_FRAME      = TEME
TIME_SYSTEM    = UTC
MEAN_ELEMENT_THEORY = SGP/SGP4

EPOCH          = 2026-02-09T06:00:02.000160
MEAN_MOTION    = 15.60944237
ECCENTRICITY   = .00014485
INCLINATION    = 42.9995
RA_OF_ASC_NODE = 115.9107
ARG_OF_PERICENTER = 267.9778
MEAN_ANOMALY   = 26.4561

EPHEMERIS_TYPE = 0
CLASSIFICATION_TYPE = U
NORAD_CAT_ID   = 67510
ELEMENT_SET_NO = 999
REV_AT_EPOCH   = 444
BSTAR          = -.25259243E-1
MEAN_MOTION_DOT = -.192133E-1
MEAN_MOTION_DDOT = 0

CCSDS_OMM_VERS = 2.0
CREATION_DATE  = 
ORIGINATOR     = 

OBJECT_NAME    = STARLINK-36540
OBJECT_ID      = 2026-012U
CENTER_NAME    = EARTH
REF_FRAME      = TEME
TIME_SYSTEM    = UTC
MEAN_ELEMENT_THEORY = SGP/SGP4

EPOCH          = 2026-02-09T06:00:02.000160
MEAN_MOTION    = 15.50582335
ECCENTRICITY   = .00015745
INCLINATION    = 43.0002
RA_OF_ASC_NODE = 116.9786
ARG_OF_PERICENTER = 275.0002
MEAN_ANOMALY   = 310.9048

EPHEMERIS_TYPE = 0
CLASSIFICATION_TYPE = U
NORAD_CAT_ID   = 67511
ELEMENT_SET_NO = 999
REV_AT_EPOCH   = 449
BSTAR          = -.71419486E-3
MEAN_MOTION_DOT = -.42021E-3
MEAN_MOTION_DDOT = 0

CCSDS_OMM_VERS = 2.0
CREATION_DATE  = 
ORIGINATOR     = 

OBJECT_NAME    = STARLINK-36538
OBJECT_ID      = 2026-012V
CENTER_NAME    = EARTH
REF_FRAME      = TEME
TIME_SYSTEM    = UTC
MEAN_ELEMENT_THEORY = SGP/SGP4

EPOCH          = 2026-02-09T06:00:02.000160
MEAN_MOTION    = 15.58188939
ECCENTRICITY   = .00009569
INCLINATION    = 42.9993
RA_OF_ASC_NODE = 116.2377
ARG_OF_PERICENTER = 272.2868
MEAN_ANOMALY   = 252.8026

EPHEMERIS_TYPE = 0
CLASSIFICATION_TYPE = U
NORAD_CAT_ID   = 67512
ELEMENT_SET_NO = 999
REV_AT_EPOCH   = 449
BSTAR          = -.27724182E-1
MEAN_MOTION_DOT = -.1898816E-1
MEAN_MOTION_DDOT = 0

CCSDS_OMM_VERS = 2.0
CREATION_DATE  = 
ORIGINATOR     = 

OBJECT_NAME    = STARLINK-36531
OBJECT_ID      = 2026-012W
CENTER_NAME    = EARTH
REF_FRAME      = TEME
TIME_SYSTEM    = UTC
MEAN_ELEMENT_THEORY = SGP/SGP4

EPOCH          = 2026-02-09T06:00:02.000160
MEAN_MOTION    = 15.59067199
ECCENTRICITY   = .00009366
INCLINATION    = 42.9995
RA_OF_ASC_NODE = 116.1830
ARG_OF_PERICENTER = 277.2375
MEAN_ANOMALY   = 269.9946

EPHEMERIS_TYPE = 0
CLASSIFICATION_TYPE = U
NORAD_CAT_ID   = 67513
ELEMENT_SET_NO = 999
REV_AT_EPOCH   = 444
BSTAR          = -.26723773E-1
MEAN_MOTION_DOT = -.1893561E-1
MEAN_MOTION_DDOT = 0

CCSDS_OMM_VERS = 2.0
CREATION_DATE  = 
ORIGINATOR     = 

OBJECT_NAME    = STARLINK-36530
OBJECT_ID      = 2026-012X
CENTER_NAME    = EARTH
REF_FRAME      = TEME
TIME_SYSTEM    = UTC
MEAN_ELEMENT_THEORY = SGP/SGP4

EPOCH          = 2026-02-09T06:00:02.000160
MEAN_MOTION    = 15.58115213
ECCENTRICITY   = .00009298
INCLINATION    = 42.9995
RA_OF_ASC_NODE = 116.2154
ARG_OF_PERICENTER = 268.5543
MEAN_ANOMALY   = 265.3321

EPHEMERIS_TYPE = 0
CLASSIFICATION_TYPE = U
NORAD_CAT_ID   = 67514
ELEMENT_SET_NO = 999
REV_AT_EPOCH   = 444
BSTAR          = -.27712117E-1
MEAN_MOTION_DOT = -.1893366E-1
MEAN_MOTION_DDOT = 0

CCSDS_OMM_VERS = 2.0
CREATION_DATE  = 
ORIGINATOR     = 

OBJECT_NAME    = STARLINK-36543
OBJECT_ID      = 2026-012Y
CENTER_NAME    = EARTH
REF_FRAME      = TEME
TIME_SYSTEM    = UTC
MEAN_ELEMENT_THEORY = SGP/SGP4

EPOCH          = 2026-02-09T06:00:02.000160
MEAN_MOTION    = 15.57113332
ECCENTRICITY   = .00011342
INCLINATION    = 42.9995
RA_OF_ASC_NODE = 116.2553
ARG_OF_PERICENTER = 277.0362
MEAN_ANOMALY   = 241.1855

EPHEMERIS_TYPE = 0
CLASSIFICATION_TYPE = U
NORAD_CAT_ID   = 67515
ELEMENT_SET_NO = 999
REV_AT_EPOCH   = 444
BSTAR          = -.28792128E-1
MEAN_MOTION_DOT = -.1893806E-1
MEAN_MOTION_DDOT = 0

CCSDS_OMM_VERS = 2.0
CREATION_DATE  = 
ORIGINATOR     = 

OBJECT_NAME    = STARLINK-36537
OBJECT_ID      = 2026-012Z
CENTER_NAME    = EARTH
REF_FRAME      = TEME
TIME_SYSTEM    = UTC
MEAN_ELEMENT_THEORY = SGP/SGP4

EPOCH          = 2026-02-09T06:00:02.000160
MEAN_MOTION    = 15.59153049
ECCENTRICITY   = .00008156
INCLINATION    = 42.9994
RA_OF_ASC_NODE = 116.1175
ARG_OF_PERICENTER = 272.5520
MEAN_ANOMALY   = 300.4295

EPHEMERIS_TYPE = 0
CLASSIFICATION_TYPE = U
NORAD_CAT_ID   = 67516
ELEMENT_SET_NO = 999
REV_AT_EPOCH   = 444
BSTAR          = -.26594974E-1
MEAN_MOTION_DOT = -.1890926E-1
MEAN_MOTION_DDOT = 0

