STARLINK-36545          
1 67505U 26012N   26040.25002315 -.01896807  00000+0 -24671-1 0  9995
2 67505  42.9995 116.1674 0000842 272.5036 281.6485 15.61181507  4494
STARLINK-36553          
1 67506U 26012P   26040.25002315 -.01937466  00000+0 -23945-1 0  9996
2 67506  42.9995 116.0980 0001082 264.2242 317.6830 15.62549752  4493
STARLINK-36521          
1 67507U 26012Q   26040.25002315 -.01928154  00000+0 -23864-1 0  9991
2 67507  42.9995 116.0862 0001067 263.8964 322.6673 15.62497589  4493
STARLINK-36526          
1 67508U 26012R   26040.25002315 -.01930723  00000+0 -23916-1 0  9995
2 67508  42.9996 116.0727 0001089 263.1248 328.8283 15.62481189  4491
STARLINK-36541          
1 67509U 26012S   26040.25002315 -.00059508  00000+0 -10166-2 0  9992
2 67509  43.0003 117.0013 0000347 230.6118 346.0746 15.50569910  4440
STARLINK-36549          
1 67510U 26012T   26040.25002315 -.01921330  00000+0 -25259-1 0  9994
2 67510  42.9995 115.9107 0001448 267.9778  26.4561 15.60944237  4443
STARLINK-36540          
1 67511U 26012U   26040.25002315 -.00042021  00000+0 -71419-3 0  9996
2 67511  43.0002 116.9786 0001574 275.0002 310.9048 15.50582335  4491
STARLINK-36538          
1 67512U 26012V   26040.25002315 -.01898816  00000+0 -27724-1 0  9997
2 67512  42.9993 116.2377 0000956 272.2868 252.8026 15.58188939  4490
STARLINK-36531          
1 67513U 26012W   26040.25002315 -.01893561  00000+0 -26724-1 0  9999
2 67513  42.9995 116.1830 0000936 277.2375 269.9946 15.59067199  4442
STARLINK-36530          
1 67514U 26012X   26040.25002315 -.01893366  00000+0 -27712-1 0  9991
2 67514  42.9995 116.2154 0000929 268.5543 265.3321 15.58115213  4442
STARLINK-36543          
1 67515U 26012Y   26040.25002315 -.01893806  00000+0 -28792-1 0  9990
2 67515  42.9995 116.2553 0001134 277.0362 241.1855 15.57113332  4442
STARLINK-36537          
1 67516U 26012Z   26040.25002315 -.01890926  00000+0 -26595-1 0  9990
2 67516  42.9994 116.1175 0000815 272.5520 300.4295 15.59153049  4440
